STARLINK-3844           
1 52705U 22053BB  26068.41339068  .00000222  00000+0  32019-4 0  9991
2 52705  53.2172 135.3619 0001211  66.2203 293.8916 15.08831189211278
YAM-8                   
1 63254U 25052AW  26068.73092778  .00007810  00000+0  47267-3 0  9993
2 63254  97.7023 329.5345 0002369 152.6796 207.4558 15.10898938 54245
